{
  "norad_id": 50180,
  "name": "STARLINK-3265",
  "history": [
    {
      "epoch": "2026-03-28T16:31:54.636384",
      "apogee_km": 540.1692203762423,
      "perigee_km": 539.2762630407833,
      "latitude_deg": -13.301650273088182,
      "longitude_deg": -15.872626239899546,
      "semi_major_axis_km": 6917.859741708513,
      "eccentricity": 6.454e-05,
      "inclination_deg": 53.2162,
      "raan_deg": 163.8389,
      "arg_perigee_deg": 137.5322,
      "mean_anomaly_deg": 222.572,
      "mean_motion_rev_day": 15.08846755
    }
  ]
}