{"fetched_at":"2026-03-30T13:17:50Z","count":15418,"tles":[{"name":"STARLINK-3265","line1":"1 50180U 21125AA  26087.68882681 -.00000746  00000+0 -28807-4 0  9992","line2":"2 50180  53.2162 163.8389 0000645 137.5322 222.5720 15.08846755239510","category":"Starlink"}]}